{"type": "FeatureCollection", "features": [ {"type": "Feature", "properties": {"norad_id": 44506, "name": "GPS BIII-2  (PRN 18)", "group": "gnss", "lat": -38.502381209454875, "lon": -168.8466761036665, "alt_km": 20054.345217566548, "timestamp": "2025-12-18T23:35:49.302135+00:00", "meta": {"OBJECT_NAME": "GPS BIII-2  (PRN 18)", "OBJECT_ID": "2019-056A", "EPOCH": "2025-12-18T07:32:42.973728", "MEAN_MOTION": 2.00566635, "ECCENTRICITY": 0.00577192, "INCLINATION": 55.7194, "RA_OF_ASC_NODE": 338.3313, "ARG_OF_PERICENTER": 198.5145, "MEAN_ANOMALY": 267.0868, "EPHEMERIS_TYPE": 0, "CLASSIFICATION_TYPE": "U", "NORAD_CAT_ID": 44506, "ELEMENT_SET_NO": 999, "REV_AT_EPOCH": 4644, "BSTAR": 0, "MEAN_MOTION_DOT": -8.5e-07, "MEAN_MOTION_DDOT": 0}, "tle": {"line1": "1 44506U 19056A   25352.31438627 -.00000085  00000+0  00000+0 0  9993", "line2": "2 44506  55.7194 338.3313 0057719 198.5145 267.0868  2.00566635 46446"}}, "geometry": {"type": "Point", "coordinates": [-168.8466761036665, -38.502381209454875]}}, {"type": "Feature", "properties": {"norad_id": 44542, "name": "BEIDOU-3 M24 (C46)", "group": "gnss", "lat": 51.41896268961457, "lon": -55.15159678391818, "alt_km": 21517.823052158274, "timestamp": "2025-12-18T23:35:49.302152+00:00", "meta": {"OBJECT_NAME": "BEIDOU-3 M24 (C46)", "OBJECT_ID": "2019-061A", "EPOCH": "2025-12-18T06:55:35.380416", "MEAN_MOTION": 1.86229377, "ECCENTRICITY": 0.00096187, "INCLINATION": 54.4001, "RA_OF_ASC_NODE": 188.8287, "ARG_OF_PERICENTER": 25.0003, "MEAN_ANOMALY": 335.1131, "EPHEMERIS_TYPE": 0, "CLASSIFICATION_TYPE": "U", "NORAD_CAT_ID": 44542, "ELEMENT_SET_NO": 999, "REV_AT_EPOCH": 4242, "BSTAR": 0, "MEAN_MOTION_DOT": 1.09e-06, "MEAN_MOTION_DDOT": 0}, "tle": {"line1": "1 44542U 19061A   25352.28860394  .00000109  00000+0  00000+0 0  9991", "line2": "2 44542  54.4001 188.8287 0009618  25.0003 335.1131  1.86229377 42425"}}, "geometry": {"type": "Point", "coordinates": [-55.15159678391818, 51.41896268961457]}}, {"type": "Feature", "properties": {"norad_id": 44543, "name": "BEIDOU-3 M23 (C45)", "group": "gnss", "lat": 14.917715362365838, "lon": -160.2105676304717, "alt_km": 21509.822418779724, "timestamp": "2025-12-18T23:35:49.302170+00:00", "meta": {"OBJECT_NAME": "BEIDOU-3 M23 (C45)", "OBJECT_ID": "2019-061B", "EPOCH": "2025-12-18T04:28:40.463616", "MEAN_MOTION": 1.86227759, "ECCENTRICITY": 0.00060655, "INCLINATION": 54.3991, "RA_OF_ASC_NODE": 188.8006, "ARG_OF_PERICENTER": 24.5513, "MEAN_ANOMALY": 179.8901, "EPHEMERIS_TYPE": 0, "CLASSIFICATION_TYPE": "U", "NORAD_CAT_ID": 44543, "ELEMENT_SET_NO": 999, "REV_AT_EPOCH": 4242, "BSTAR": 0, "MEAN_MOTION_DOT": 1.09e-06, "MEAN_MOTION_DDOT": 0}, "tle": {"line1": "1 44543U 19061B   25352.18657944  .00000109  00000+0  00000+0 0  9996", "line2": "2 44543  54.3991 188.8006 0006065  24.5513 179.8901  1.86227759 42425"}}, "geometry": {"type": "Point", "coordinates": [-160.2105676304717, 14.917715362365838]}}, {"type": "Feature", "properties": {"norad_id": 44624, "name": "EUTELSAT 5 WEST B (EGNOS/PRN 121)", "group": "gnss", "lat": 0.09303363530959956, "lon": 76.7968811363991, "alt_km": 35798.71492230617, "timestamp": "2025-12-18T23:35:49.302188+00:00", "meta": {"OBJECT_NAME": "EUTELSAT 5 WEST B (EGNOS/PRN 121)", "OBJECT_ID": "2019-067A", "EPOCH": "2025-12-18T08:08:02.579136", "MEAN_MOTION": 1.00271263, "ECCENTRICITY": 0.00030044, "INCLINATION": 0.0696, "RA_OF_ASC_NODE": 331.0645, "ARG_OF_PERICENTER": 296.4437, "MEAN_ANOMALY": 296.7151, "EPHEMERIS_TYPE": 0, "CLASSIFICATION_TYPE": "U", "NORAD_CAT_ID": 44624, "ELEMENT_SET_NO": 999, "REV_AT_EPOCH": 2262, "BSTAR": 0, "MEAN_MOTION_DOT": -1.7e-07, "MEAN_MOTION_DDOT": 0}, "tle": {"line1": "1 44624U 19067A   25352.33891874 -.00000017  00000+0  00000+0 0  9990", "line2": "2 44624   0.0696 331.0645 0003004 296.4437 296.7151  1.00271263 22622"}}, "geometry": {"type": "Point", "coordinates": [76.7968811363991, 0.09303363530959956]}}, {"type": "Feature", "properties": {"norad_id": 44709, "name": "BEIDOU-3 IGSO-3 (C40)", "group": "gnss", "lat": -55.11024535624378, "lon": -163.69601439797827, "alt_km": 35768.81739177036, "timestamp": "2025-12-18T23:35:49.302206+00:00", "meta": {"OBJECT_NAME": "BEIDOU-3 IGSO-3 (C40)", "OBJECT_ID": "2019-073A", "EPOCH": "2025-11-20T07:11:22.740000", "MEAN_MOTION": 1.00250097, "ECCENTRICITY": 0.0044538, "INCLINATION": 55.163, "RA_OF_ASC_NODE": 283.159, "ARG_OF_PERICENTER": 191.5856, "MEAN_ANOMALY": 168.2409, "EPHEMERIS_TYPE": 0, "CLASSIFICATION_TYPE": "U", "NORAD_CAT_ID": 44709, "ELEMENT_SET_NO": 999, "REV_AT_EPOCH": 2236, "BSTAR": 0, "MEAN_MOTION_DOT": -2.06e-06, "MEAN_MOTION_DDOT": 0}, "tle": {"line1": "1 44709U 19073A   25324.29956875 -.00000206  00000+0  00000+0 0  9998", "line2": "2 44709  55.1630 283.1590 0044538 191.5856 168.2409  1.00250097 22360"}}, "geometry": {"type": "Point", "coordinates": [-163.69601439797827, -55.11024535624378]}}, {"type": "Feature", "properties": {"norad_id": 44793, "name": "BEIDOU-3 M22 (C44)", "group": "gnss", "lat": -26.21671030144961, "lon": 147.01699059563688, "alt_km": 21547.87844474703, "timestamp": "2025-12-18T23:35:49.302229+00:00", "meta": {"OBJECT_NAME": "BEIDOU-3 M22 (C44)", "OBJECT_ID": "2019-078A", "EPOCH": "2025-12-18T03:05:10.380768", "MEAN_MOTION": 1.86232153, "ECCENTRICITY": 0.00060099, "INCLINATION": 54.1032, "RA_OF_ASC_NODE": 306.1968, "ARG_OF_PERICENTER": 24.2925, "MEAN_ANOMALY": 335.7236, "EPHEMERIS_TYPE": 0, "CLASSIFICATION_TYPE": "U", "NORAD_CAT_ID": 44793, "ELEMENT_SET_NO": 999, "REV_AT_EPOCH": 4127, "BSTAR": 0, "MEAN_MOTION_DOT": -8.5e-07, "MEAN_MOTION_DDOT": 0}, "tle": {"line1": "1 44793U 19078A   25352.12859237 -.00000085  00000+0  00000+0 0  9998", "line2": "2 44793  54.1032 306.1968 0006009  24.2925 335.7236  1.86232153 41270"}}, "geometry": {"type": "Point", "coordinates": [147.01699059563688, -26.21671030144961]}}, {"type": "Feature", "properties": {"norad_id": 44794, "name": "BEIDOU-3 M21 (C43)", "group": "gnss", "lat": 44.15204751133691, "lon": 81.42354883352694, "alt_km": 21526.73371298009, "timestamp": "2025-12-18T23:35:49.302251+00:00", "meta": {"OBJECT_NAME": "BEIDOU-3 M21 (C43)", "OBJECT_ID": "2019-078B", "EPOCH": "2025-12-16T15:43:55.727904", "MEAN_MOTION": 1.86227668, "ECCENTRICITY": 0.00041169, "INCLINATION": 54.078, "RA_OF_ASC_NODE": 306.2132, "ARG_OF_PERICENTER": 11.942, "MEAN_ANOMALY": 348.0544, "EPHEMERIS_TYPE": 0, "CLASSIFICATION_TYPE": "U", "NORAD_CAT_ID": 44794, "ELEMENT_SET_NO": 999, "REV_AT_EPOCH": 4125, "BSTAR": 0, "MEAN_MOTION_DOT": -9.5e-07, "MEAN_MOTION_DDOT": 0}, "tle": {"line1": "1 44794U 19078B   25350.65550611 -.00000095  00000+0  00000+0 0  9990", "line2": "2 44794  54.0780 306.2132 0004116  11.9420 348.0544  1.86227668 41256"}}, "geometry": {"type": "Point", "coordinates": [81.42354883352694, 44.15204751133691]}}, {"type": "Feature", "properties": {"norad_id": 44850, "name": "COSMOS 2544 (759)", "group": "gnss", "lat": 55.50291056221851, "lon": -141.80841768252094, "alt_km": 19148.576778334074, "timestamp": "2025-12-18T23:35:49.302270+00:00", "meta": {"OBJECT_NAME": "COSMOS 2544 (759)", "OBJECT_ID": "2019-088A", "EPOCH": "2025-12-16T11:40:43.010688", "MEAN_MOTION": 2.13101965, "ECCENTRICITY": 0.00138869, "INCLINATION": 65.4623, "RA_OF_ASC_NODE": 79.8328, "ARG_OF_PERICENTER": 249.7945, "MEAN_ANOMALY": 110.0707, "EPHEMERIS_TYPE": 0, "CLASSIFICATION_TYPE": "U", "NORAD_CAT_ID": 44850, "ELEMENT_SET_NO": 999, "REV_AT_EPOCH": 4682, "BSTAR": 0, "MEAN_MOTION_DOT": -5.3e-07, "MEAN_MOTION_DDOT": 0}, "tle": {"line1": "1 44850U 19088A   25350.48660892 -.00000053  00000+0  00000+0 0  9992", "line2": "2 44850  65.4623  79.8328 0013886 249.7945 110.0707  2.13101965 46826"}}, "geometry": {"type": "Point", "coordinates": [-141.80841768252094, 55.50291056221851]}}, {"type": "Feature", "properties": {"norad_id": 44864, "name": "BEIDOU-3 M19 (C41)", "group": "gnss", "lat": -35.00834065801191, "lon": 41.06155692920638, "alt_km": 21489.1996850787, "timestamp": "2025-12-18T23:35:49.302291+00:00", "meta": {"OBJECT_NAME": "BEIDOU-3 M19 (C41)", "OBJECT_ID": "2019-090A", "EPOCH": "2025-12-18T12:21:17.080992", "MEAN_MOTION": 1.86231635, "ECCENTRICITY": 0.00181366, "INCLINATION": 56.3981, "RA_OF_ASC_NODE": 68.7699, "ARG_OF_PERICENTER": 285.1234, "MEAN_ANOMALY": 77.2184, "EPHEMERIS_TYPE": 0, "CLASSIFICATION_TYPE": "U", "NORAD_CAT_ID": 44864, "ELEMENT_SET_NO": 999, "REV_AT_EPOCH": 4087, "BSTAR": 0, "MEAN_MOTION_DOT": -6.2e-07, "MEAN_MOTION_DDOT": 0}, "tle": {"line1": "1 44864U 19090A   25352.51478103 -.00000062  00000+0  00000+0 0  9998", "line2": "2 44864  56.3981  68.7699 0018136 285.1234  77.2184  1.86231635 40872"}}, "geometry": {"type": "Point", "coordinates": [41.06155692920638, -35.00834065801191]}}, {"type": "Feature", "properties": {"norad_id": 44865, "name": "BEIDOU-3 M20 (C42)", "group": "gnss", "lat": 36.93234939762173, "lon": 98.73573078465947, "alt_km": 21537.539971828617, "timestamp": "2025-12-18T23:35:49.302308+00:00", "meta": {"OBJECT_NAME": "BEIDOU-3 M20 (C42)", "OBJECT_ID": "2019-090B", "EPOCH": "2025-12-18T13:12:22.451040", "MEAN_MOTION": 1.86231689, "ECCENTRICITY": 0.00154108, "INCLINATION": 56.3994, "RA_OF_ASC_NODE": 68.8029, "ARG_OF_PERICENTER": 297.0214, "MEAN_ANOMALY": 178.7198, "EPHEMERIS_TYPE": 0, "CLASSIFICATION_TYPE": "U", "NORAD_CAT_ID": 44865, "ELEMENT_SET_NO": 999, "REV_AT_EPOCH": 4085, "BSTAR": 0, "MEAN_MOTION_DOT": -6.2e-07, "MEAN_MOTION_DDOT": 0}, "tle": {"line1": "1 44865U 19090B   25352.55025985 -.00000062  00000+0  00000+0 0  9999", "line2": "2 44865  56.3994  68.8029 0015410 297.0214 178.7198  1.86231689 40856"}}, "geometry": {"type": "Point", "coordinates": [98.73573078465947, 36.93234939762173]}}]}